{"type": "FeatureCollection", "features": [ {"type": "Feature", "properties": {"norad_id": 60989, "name": "SENTINEL-2C", "group": "resource", "lat": 80.30591318706195, "lon": -47.79468327491347, "alt_km": 780.7066267563978, "timestamp": "2025-12-23T22:42:32.636077+00:00", "meta": {"OBJECT_NAME": "SENTINEL-2C", "OBJECT_ID": "2024-157A", "EPOCH": "2025-12-22T16:03:33.313248", "MEAN_MOTION": 14.30821394, "ECCENTRICITY": 0.00011973, "INCLINATION": 98.5671, "RA_OF_ASC_NODE": 69.0082, "ARG_OF_PERICENTER": 95.1447, "MEAN_ANOMALY": 264.9872, "EPHEMERIS_TYPE": 0, "CLASSIFICATION_TYPE": "U", "NORAD_CAT_ID": 60989, "ELEMENT_SET_NO": 999, "REV_AT_EPOCH": 6774, "BSTAR": 7.0243627e-05, "MEAN_MOTION_DOT": 1.41e-06, "MEAN_MOTION_DDOT": 0}, "tle": {"line1": "1 60989U 24157A   25356.66913557  .00000141  00000+0  70244-4 0  9990", "line2": "2 60989  98.5671  69.0082 0001197  95.1447 264.9872 14.30821394 67740"}}, "geometry": {"type": "Point", "coordinates": [-47.79468327491347, 80.30591318706195]}}, {"type": "Feature", "properties": {"norad_id": 61735, "name": "IONOSFERA-M 1", "group": "resource", "lat": 33.99684835331547, "lon": -138.247658284511, "alt_km": 813.683847684084, "timestamp": "2025-12-23T22:42:32.636091+00:00", "meta": {"OBJECT_NAME": "IONOSFERA-M 1", "OBJECT_ID": "2024-199A", "EPOCH": "2025-12-23T07:21:24.740640", "MEAN_MOTION": 14.2271628, "ECCENTRICITY": 4.407e-05, "INCLINATION": 98.7404, "RA_OF_ASC_NODE": 227.0733, "ARG_OF_PERICENTER": 6.9709, "MEAN_ANOMALY": 353.1475, "EPHEMERIS_TYPE": 0, "CLASSIFICATION_TYPE": "U", "NORAD_CAT_ID": 61735, "ELEMENT_SET_NO": 999, "REV_AT_EPOCH": 10269, "BSTAR": 4.8243359e-05, "MEAN_MOTION_DOT": 6.4e-07, "MEAN_MOTION_DDOT": 0}, "tle": {"line1": "1 61735U 24199A   25357.30653635  .00000064  00000+0  48243-4 0  9994", "line2": "2 61735  98.7404 227.0733 0000440   6.9709 353.1475 14.22716280102698"}}, "geometry": {"type": "Point", "coordinates": [-138.247658284511, 33.99684835331547]}}, {"type": "Feature", "properties": {"norad_id": 61736, "name": "IONOSFERA-M 2", "group": "resource", "lat": -36.901978237292866, "lon": 40.98735147031249, "alt_km": 823.189519052371, "timestamp": "2025-12-23T22:42:32.636102+00:00", "meta": {"OBJECT_NAME": "IONOSFERA-M 2", "OBJECT_ID": "2024-199B", "EPOCH": "2025-12-23T06:30:00.582048", "MEAN_MOTION": 14.22718444, "ECCENTRICITY": 0.0001842, "INCLINATION": 98.7395, "RA_OF_ASC_NODE": 226.9502, "ARG_OF_PERICENTER": 97.0087, "MEAN_ANOMALY": 263.13, "EPHEMERIS_TYPE": 0, "CLASSIFICATION_TYPE": "U", "NORAD_CAT_ID": 61736, "ELEMENT_SET_NO": 999, "REV_AT_EPOCH": 10581, "BSTAR": 4.4147184e-05, "MEAN_MOTION_DOT": 5.5e-07, "MEAN_MOTION_DDOT": 0}, "tle": {"line1": "1 61736U 24199B   25357.27084007  .00000055  00000+0  44147-4 0  9991", "line2": "2 61736  98.7395 226.9502 0001842  97.0087 263.1300 14.22718444105815"}}, "geometry": {"type": "Point", "coordinates": [40.98735147031249, -36.901978237292866]}}, {"type": "Feature", "properties": {"norad_id": 63772, "name": "BIOMASS", "group": "resource", "lat": 53.75832937980215, "lon": 171.63177467028282, "alt_km": 663.1596836278723, "timestamp": "2025-12-23T22:42:32.636113+00:00", "meta": {"OBJECT_NAME": "BIOMASS", "OBJECT_ID": "2025-090A", "EPOCH": "2025-12-23T01:11:18.929760", "MEAN_MOTION": 14.67539192, "ECCENTRICITY": 0.00011003, "INCLINATION": 98.0698, "RA_OF_ASC_NODE": 181.9089, "ARG_OF_PERICENTER": 82.234, "MEAN_ANOMALY": 277.899, "EPHEMERIS_TYPE": 0, "CLASSIFICATION_TYPE": "U", "NORAD_CAT_ID": 63772, "ELEMENT_SET_NO": 999, "REV_AT_EPOCH": 3485, "BSTAR": 0.0002248983, "MEAN_MOTION_DOT": 1.228e-05, "MEAN_MOTION_DDOT": 0}, "tle": {"line1": "1 63772U 25090A   25357.04952465  .00001228  00000+0  22490-3 0  9990", "line2": "2 63772  98.0698 181.9089 0001100  82.2340 277.8990 14.67539192 34853"}}, "geometry": {"type": "Point", "coordinates": [171.63177467028282, 53.75832937980215]}}, {"type": "Feature", "properties": {"norad_id": 64694, "name": "GOSAT-GW (IBUKI GW)", "group": "resource", "lat": -80.62504051421925, "lon": 54.326322372662155, "alt_km": 677.2022918300663, "timestamp": "2025-12-23T22:42:32.636123+00:00", "meta": {"OBJECT_NAME": "GOSAT-GW (IBUKI GW)", "OBJECT_ID": "2025-141A", "EPOCH": "2025-12-23T06:46:38.332704", "MEAN_MOTION": 14.67565349, "ECCENTRICITY": 0.00014317, "INCLINATION": 98.0438, "RA_OF_ASC_NODE": 292.6047, "ARG_OF_PERICENTER": 84.2556, "MEAN_ANOMALY": 275.8811, "EPHEMERIS_TYPE": 0, "CLASSIFICATION_TYPE": "U", "NORAD_CAT_ID": 64694, "ELEMENT_SET_NO": 999, "REV_AT_EPOCH": 2604, "BSTAR": 0.00017570851, "MEAN_MOTION_DOT": 9.49e-06, "MEAN_MOTION_DDOT": 0}, "tle": {"line1": "1 64694U 25141A   25357.28238811  .00000949  00000+0  17571-3 0  9992", "line2": "2 64694  98.0438 292.6047 0001431  84.2556 275.8811 14.67565349 26046"}}, "geometry": {"type": "Point", "coordinates": [54.326322372662155, -80.62504051421925]}}, {"type": "Feature", "properties": {"norad_id": 64876, "name": "IONOSFERA-M 3", "group": "resource", "lat": -29.762830742567232, "lon": 134.54327929851448, "alt_km": 827.7090551374649, "timestamp": "2025-12-23T22:42:32.636133+00:00", "meta": {"OBJECT_NAME": "IONOSFERA-M 3", "OBJECT_ID": "2025-155A", "EPOCH": "2025-12-23T06:31:10.824384", "MEAN_MOTION": 14.21443485, "ECCENTRICITY": 0.0001911, "INCLINATION": 98.5798, "RA_OF_ASC_NODE": 318.8404, "ARG_OF_PERICENTER": 42.7474, "MEAN_ANOMALY": 317.3852, "EPHEMERIS_TYPE": 0, "CLASSIFICATION_TYPE": "U", "NORAD_CAT_ID": 64876, "ELEMENT_SET_NO": 999, "REV_AT_EPOCH": 2141, "BSTAR": 5.3507482e-05, "MEAN_MOTION_DOT": 7.4e-07, "MEAN_MOTION_DDOT": 0}, "tle": {"line1": "1 64876U 25155A   25357.27165306  .00000074  00000+0  53507-4 0  9995", "line2": "2 64876  98.5798 318.8404 0001911  42.7474 317.3852 14.21443485 21410"}}, "geometry": {"type": "Point", "coordinates": [134.54327929851448, -29.762830742567232]}}, {"type": "Feature", "properties": {"norad_id": 64877, "name": "IONOSFERA-M 4", "group": "resource", "lat": 30.24526442797844, "lon": -45.634879621513036, "alt_km": 817.947132437399, "timestamp": "2025-12-23T22:42:32.636144+00:00", "meta": {"OBJECT_NAME": "IONOSFERA-M 4", "OBJECT_ID": "2025-155B", "EPOCH": "2025-12-23T07:21:39.845952", "MEAN_MOTION": 14.2144464, "ECCENTRICITY": 0.00013396, "INCLINATION": 98.5798, "RA_OF_ASC_NODE": 318.7938, "ARG_OF_PERICENTER": 53.3725, "MEAN_ANOMALY": 306.7576, "EPHEMERIS_TYPE": 0, "CLASSIFICATION_TYPE": "U", "NORAD_CAT_ID": 64877, "ELEMENT_SET_NO": 999, "REV_AT_EPOCH": 2141, "BSTAR": 5.1144422e-05, "MEAN_MOTION_DOT": 6.9e-07, "MEAN_MOTION_DDOT": 0}, "tle": {"line1": "1 64877U 25155B   25357.30671118  .00000069  00000+0  51144-4 0  9992", "line2": "2 64877  98.5798 318.7938 0001339  53.3725 306.7576 14.21444640 21412"}}, "geometry": {"type": "Point", "coordinates": [-45.634879621513036, 30.24526442797844]}}, {"type": "Feature", "properties": {"norad_id": 64899, "name": "MICROCARB", "group": "resource", "lat": 62.93632217164916, "lon": 57.131639603918906, "alt_km": 639.8527913369544, "timestamp": "2025-12-23T22:42:32.636154+00:00", "meta": {"OBJECT_NAME": "MICROCARB", "OBJECT_ID": "2025-156A", "EPOCH": "2025-12-23T04:28:28.448832", "MEAN_MOTION": 14.72073334, "ECCENTRICITY": 0.00175884, "INCLINATION": 98.0012, "RA_OF_ASC_NODE": 72.3639, "ARG_OF_PERICENTER": 113.4217, "MEAN_ANOMALY": 246.8841, "EPHEMERIS_TYPE": 0, "CLASSIFICATION_TYPE": "U", "NORAD_CAT_ID": 64899, "ELEMENT_SET_NO": 999, "REV_AT_EPOCH": 2207, "BSTAR": 0.00011775886, "MEAN_MOTION_DOT": 6.92e-06, "MEAN_MOTION_DDOT": 0}, "tle": {"line1": "1 64899U 25156A   25357.18644038  .00000692  00000+0  11776-3 0  9992", "line2": "2 64899  98.0012  72.3639 0017588 113.4217 246.8841 14.72073334 22074"}}, "geometry": {"type": "Point", "coordinates": [57.131639603918906, 62.93632217164916]}}, {"type": "Feature", "properties": {"norad_id": 64900, "name": "CO3D 3", "group": "resource", "lat": -63.43405527556205, "lon": -120.98446253510845, "alt_km": 513.3426655370195, "timestamp": "2025-12-23T22:42:32.636165+00:00", "meta": {"OBJECT_NAME": "CO3D 3", "OBJECT_ID": "2025-156B", "EPOCH": "2025-12-23T05:50:23.724960", "MEAN_MOTION": 15.20199974, "ECCENTRICITY": 0.00013216, "INCLINATION": 97.434, "RA_OF_ASC_NODE": 73.4601, "ARG_OF_PERICENTER": 73.2947, "MEAN_ANOMALY": 286.8433, "EPHEMERIS_TYPE": 0, "CLASSIFICATION_TYPE": "U", "NORAD_CAT_ID": 64900, "ELEMENT_SET_NO": 999, "REV_AT_EPOCH": 2280, "BSTAR": 0.00030508848, "MEAN_MOTION_DOT": 6.542e-05, "MEAN_MOTION_DDOT": 0}, "tle": {"line1": "1 64900U 25156B   25357.24333015  .00006542  00000+0  30509-3 0  9997", "line2": "2 64900  97.4340  73.4601 0001321  73.2947 286.8433 15.20199974 22801"}}, "geometry": {"type": "Point", "coordinates": [-120.98446253510845, -63.43405527556205]}}, {"type": "Feature", "properties": {"norad_id": 64901, "name": "CO3D 4", "group": "resource", "lat": -62.75425492545754, "lon": -120.53564531485192, "alt_km": 512.2517922820953, "timestamp": "2025-12-23T22:42:32.636176+00:00", "meta": {"OBJECT_NAME": "CO3D 4", "OBJECT_ID": "2025-156C", "EPOCH": "2025-12-22T17:12:19.854144", "MEAN_MOTION": 15.20218181, "ECCENTRICITY": 0.00013582, "INCLINATION": 97.4339, "RA_OF_ASC_NODE": 72.9412, "ARG_OF_PERICENTER": 164.3046, "MEAN_ANOMALY": 195.8231, "EPHEMERIS_TYPE": 0, "CLASSIFICATION_TYPE": "U", "NORAD_CAT_ID": 64901, "ELEMENT_SET_NO": 999, "REV_AT_EPOCH": 2272, "BSTAR": 0.00027567855, "MEAN_MOTION_DOT": 5.908e-05, "MEAN_MOTION_DDOT": 0}, "tle": {"line1": "1 64901U 25156C   25356.71689646  .00005908  00000+0  27568-3 0  9999", "line2": "2 64901  97.4339  72.9412 0001358 164.3046 195.8231 15.20218181 22724"}}, "geometry": {"type": "Point", "coordinates": [-120.53564531485192, -62.75425492545754]}}]}